{"type": "FeatureCollection", "features": [ {"type": "Feature", "properties": {"norad_id": 40664, "name": "SKY MEXICO-1", "group": "intelsat", "lat": 0.015461205714219594, "lon": 162.58455420985572, "alt_km": 35793.16961000726, "timestamp": "2025-12-25T09:48:51.954018+00:00", "meta": {"OBJECT_NAME": "SKY MEXICO-1", "OBJECT_ID": "2015-026B", "EPOCH": "2025-12-25T02:52:23.941056", "MEAN_MOTION": 1.00270035, "ECCENTRICITY": 0.000254, "INCLINATION": 0.0165, "RA_OF_ASC_NODE": 4.6804, "ARG_OF_PERICENTER": 285.7162, "MEAN_ANOMALY": 127.8178, "EPHEMERIS_TYPE": 0, "CLASSIFICATION_TYPE": "U", "NORAD_CAT_ID": 40664, "ELEMENT_SET_NO": 999, "REV_AT_EPOCH": 3870, "BSTAR": 0, "MEAN_MOTION_DOT": -2.13e-06, "MEAN_MOTION_DDOT": 0}, "tle": {"line1": "1 40664U 15026B   25359.11972154 -.00000213  00000+0  00000+0 0  9993", "line2": "2 40664   0.0165   4.6804 0002540 285.7162 127.8178  1.00270035 38708"}}, "geometry": {"type": "Point", "coordinates": [162.58455420985572, 0.015461205714219594]}}, {"type": "Feature", "properties": {"norad_id": 40874, "name": "INTELSAT 34 (IS-34)", "group": "intelsat", "lat": -0.008436794597175992, "lon": -174.11847991587143, "alt_km": 35784.23898810423, "timestamp": "2025-12-25T09:48:51.954029+00:00", "meta": {"OBJECT_NAME": "INTELSAT 34 (IS-34)", "OBJECT_ID": "2015-039A", "EPOCH": "2025-12-24T19:41:03.235776", "MEAN_MOTION": 1.00269915, "ECCENTRICITY": 6.33e-05, "INCLINATION": 0.0112, "RA_OF_ASC_NODE": 321.6205, "ARG_OF_PERICENTER": 200.7023, "MEAN_ANOMALY": 171.0333, "EPHEMERIS_TYPE": 0, "CLASSIFICATION_TYPE": "U", "NORAD_CAT_ID": 40874, "ELEMENT_SET_NO": 999, "REV_AT_EPOCH": 3787, "BSTAR": 0, "MEAN_MOTION_DOT": -2.64e-06, "MEAN_MOTION_DDOT": 0}, "tle": {"line1": "1 40874U 15039A   25358.82017634 -.00000264  00000+0  00000+0 0  9996", "line2": "2 40874   0.0112 321.6205 0000633 200.7023 171.0333  1.00269915 37870"}}, "geometry": {"type": "Point", "coordinates": [-174.11847991587143, -0.008436794597175992]}}, {"type": "Feature", "properties": {"norad_id": 41581, "name": "INTELSAT 31 (IS-31)", "group": "intelsat", "lat": -0.0006589097838763646, "lon": 146.28804751488428, "alt_km": 35782.60567103582, "timestamp": "2025-12-25T09:48:51.954040+00:00", "meta": {"OBJECT_NAME": "INTELSAT 31 (IS-31)", "OBJECT_ID": "2016-035A", "EPOCH": "2025-12-23T19:31:44.703840", "MEAN_MOTION": 1.00269658, "ECCENTRICITY": 0.0001926, "INCLINATION": 0.0283, "RA_OF_ASC_NODE": 262.055, "ARG_OF_PERICENTER": 303.365, "MEAN_ANOMALY": 85.0534, "EPHEMERIS_TYPE": 0, "CLASSIFICATION_TYPE": "U", "NORAD_CAT_ID": 41581, "ELEMENT_SET_NO": 999, "REV_AT_EPOCH": 3492, "BSTAR": 0, "MEAN_MOTION_DOT": -1.29e-06, "MEAN_MOTION_DDOT": 0}, "tle": {"line1": "1 41581U 16035A   25357.81371185 -.00000129  00000+0  00000+0 0  9991", "line2": "2 41581   0.0283 262.0550 0001926 303.3650  85.0534  1.00269658 34922"}}, "geometry": {"type": "Point", "coordinates": [146.28804751488428, -0.0006589097838763646]}}, {"type": "Feature", "properties": {"norad_id": 41747, "name": "INTELSAT 36 (IS-36)", "group": "intelsat", "lat": -0.028897236699426634, "lon": -50.13309451253731, "alt_km": 35781.397133447346, "timestamp": "2025-12-25T09:48:51.954052+00:00", "meta": {"OBJECT_NAME": "INTELSAT 36 (IS-36)", "OBJECT_ID": "2016-053A", "EPOCH": "2025-12-24T23:41:40.191072", "MEAN_MOTION": 1.00271078, "ECCENTRICITY": 0.0001196, "INCLINATION": 0.0114, "RA_OF_ASC_NODE": 13.9545, "ARG_OF_PERICENTER": 310.844, "MEAN_ANOMALY": 192.8649, "EPHEMERIS_TYPE": 0, "CLASSIFICATION_TYPE": "U", "NORAD_CAT_ID": 41747, "ELEMENT_SET_NO": 999, "REV_AT_EPOCH": 3420, "BSTAR": 0, "MEAN_MOTION_DOT": -3e-08, "MEAN_MOTION_DDOT": 0}, "tle": {"line1": "1 41747U 16053A   25358.98727073 -.00000003  00000+0  00000+0 0  9996", "line2": "2 41747   0.0114  13.9545 0001196 310.8440 192.8649  1.00271078 34209"}}, "geometry": {"type": "Point", "coordinates": [-50.13309451253731, -0.028897236699426634]}}, {"type": "Feature", "properties": {"norad_id": 41945, "name": "INTELSAT 32E (IS-32E)", "group": "intelsat", "lat": 0.019192880337994937, "lon": -161.7982649339532, "alt_km": 35789.257685477096, "timestamp": "2025-12-25T09:48:51.954063+00:00", "meta": {"OBJECT_NAME": "INTELSAT 32E (IS-32E)", "OBJECT_ID": "2017-007B", "EPOCH": "2025-12-25T00:22:38.800704", "MEAN_MOTION": 1.00269238, "ECCENTRICITY": 5.81e-05, "INCLINATION": 0.0247, "RA_OF_ASC_NODE": 70.7828, "ARG_OF_PERICENTER": 314.6523, "MEAN_ANOMALY": 30.8337, "EPHEMERIS_TYPE": 0, "CLASSIFICATION_TYPE": "U", "NORAD_CAT_ID": 41945, "ELEMENT_SET_NO": 999, "REV_AT_EPOCH": 3247, "BSTAR": 0, "MEAN_MOTION_DOT": -2.48e-06, "MEAN_MOTION_DDOT": 0}, "tle": {"line1": "1 41945U 17007B   25359.01572686 -.00000248  00000+0  00000+0 0  9990", "line2": "2 41945   0.0247  70.7828 0000581 314.6523  30.8337  1.00269238 32479"}}, "geometry": {"type": "Point", "coordinates": [-161.7982649339532, 0.019192880337994937]}}, {"type": "Feature", "properties": {"norad_id": 42818, "name": "INTELSAT 35E (IS-35E)", "group": "intelsat", "lat": -0.0036893925382902957, "lon": -153.15925781184632, "alt_km": 35784.293313330774, "timestamp": "2025-12-25T09:48:51.954075+00:00", "meta": {"OBJECT_NAME": "INTELSAT 35E (IS-35E)", "OBJECT_ID": "2017-041A", "EPOCH": "2025-12-24T19:47:02.663232", "MEAN_MOTION": 1.00269135, "ECCENTRICITY": 0.0001994, "INCLINATION": 0.0182, "RA_OF_ASC_NODE": 26.5073, "ARG_OF_PERICENTER": 252.5399, "MEAN_ANOMALY": 76.7961, "EPHEMERIS_TYPE": 0, "CLASSIFICATION_TYPE": "U", "NORAD_CAT_ID": 42818, "ELEMENT_SET_NO": 999, "REV_AT_EPOCH": 3106, "BSTAR": 0, "MEAN_MOTION_DOT": -2.17e-06, "MEAN_MOTION_DDOT": 0}, "tle": {"line1": "1 42818U 17041A   25358.82433638 -.00000217  00000+0  00000+0 0  9995", "line2": "2 42818   0.0182  26.5073 0001994 252.5399  76.7961  1.00269135 31060"}}, "geometry": {"type": "Point", "coordinates": [-153.15925781184632, -0.0036893925382902957]}}, {"type": "Feature", "properties": {"norad_id": 42950, "name": "INTELSAT 37E (IS-37E)", "group": "intelsat", "lat": -0.016574722237648585, "lon": -136.6415594998946, "alt_km": 35776.50426777818, "timestamp": "2025-12-25T09:48:51.954086+00:00", "meta": {"OBJECT_NAME": "INTELSAT 37E (IS-37E)", "OBJECT_ID": "2017-059A", "EPOCH": "2025-12-24T23:17:12.534144", "MEAN_MOTION": 1.00269836, "ECCENTRICITY": 0.0003118, "INCLINATION": 0.0204, "RA_OF_ASC_NODE": 23.5202, "ARG_OF_PERICENTER": 239.519, "MEAN_ANOMALY": 162.0053, "EPHEMERIS_TYPE": 0, "CLASSIFICATION_TYPE": "U", "NORAD_CAT_ID": 42950, "ELEMENT_SET_NO": 999, "REV_AT_EPOCH": 3031, "BSTAR": 0, "MEAN_MOTION_DOT": 0, "MEAN_MOTION_DDOT": 0}, "tle": {"line1": "1 42950U 17059A   25358.97028396  .00000000  00000+0  00000+0 0  9997", "line2": "2 42950   0.0204  23.5202 0003118 239.5190 162.0053  1.00269836 30313"}}, "geometry": {"type": "Point", "coordinates": [-136.6415594998946, -0.016574722237648585]}}, {"type": "Feature", "properties": {"norad_id": 43632, "name": "AZERSPACE 2 (IS-38)", "group": "intelsat", "lat": -0.03466237664816925, "lon": -73.51561776087019, "alt_km": 35780.8567959052, "timestamp": "2025-12-25T09:48:51.954097+00:00", "meta": {"OBJECT_NAME": "AZERSPACE 2 (IS-38)", "OBJECT_ID": "2018-074A", "EPOCH": "2025-12-25T01:54:38.767104", "MEAN_MOTION": 1.00271032, "ECCENTRICITY": 0.0001302, "INCLINATION": 0.0138, "RA_OF_ASC_NODE": 16.0019, "ARG_OF_PERICENTER": 258.9438, "MEAN_ANOMALY": 252.6636, "EPHEMERIS_TYPE": 0, "CLASSIFICATION_TYPE": "U", "NORAD_CAT_ID": 43632, "ELEMENT_SET_NO": 999, "REV_AT_EPOCH": 2670, "BSTAR": 0, "MEAN_MOTION_DOT": 1.58e-06, "MEAN_MOTION_DDOT": 0}, "tle": {"line1": "1 43632U 18074A   25359.07961536  .00000158  00000+0  00000+0 0  9991", "line2": "2 43632   0.0138  16.0019 0001302 258.9438 252.6636  1.00271032 26705"}}, "geometry": {"type": "Point", "coordinates": [-73.51561776087019, -0.03466237664816925]}}, {"type": "Feature", "properties": {"norad_id": 43633, "name": "HORIZONS-3E", "group": "intelsat", "lat": -0.00435881905179122, "lon": 50.37184942313557, "alt_km": 35786.77411614158, "timestamp": "2025-12-25T09:48:51.954109+00:00", "meta": {"OBJECT_NAME": "HORIZONS-3E", "OBJECT_ID": "2018-074B", "EPOCH": "2025-12-24T12:50:38.701824", "MEAN_MOTION": 1.0026891, "ECCENTRICITY": 6.503e-05, "INCLINATION": 0.0125, "RA_OF_ASC_NODE": 213.101, "ARG_OF_PERICENTER": 109.3498, "MEAN_ANOMALY": 132.5125, "EPHEMERIS_TYPE": 0, "CLASSIFICATION_TYPE": "U", "NORAD_CAT_ID": 43633, "ELEMENT_SET_NO": 999, "REV_AT_EPOCH": 2659, "BSTAR": 0, "MEAN_MOTION_DOT": 0, "MEAN_MOTION_DDOT": 0}, "tle": {"line1": "1 43633U 18074B   25358.53517016  .00000000  00000+0  00000+0 0  9998", "line2": "2 43633   0.0125 213.1010 0000650 109.3498 132.5125  1.00268910 26590"}}, "geometry": {"type": "Point", "coordinates": [50.37184942313557, -0.00435881905179122]}}, {"type": "Feature", "properties": {"norad_id": 44333, "name": "AT&T T-16", "group": "intelsat", "lat": 0.03778744473844384, "lon": 140.49632966126586, "alt_km": 35784.19665543237, "timestamp": "2025-12-25T09:48:51.954120+00:00", "meta": {"OBJECT_NAME": "AT&T T-16", "OBJECT_ID": "2019-034A", "EPOCH": "2025-12-23T22:55:25.672800", "MEAN_MOTION": 1.00268558, "ECCENTRICITY": 6.686e-05, "INCLINATION": 0.0228, "RA_OF_ASC_NODE": 67.9518, "ARG_OF_PERICENTER": 76.4171, "MEAN_ANOMALY": 191.3588, "EPHEMERIS_TYPE": 0, "CLASSIFICATION_TYPE": "U", "NORAD_CAT_ID": 44333, "ELEMENT_SET_NO": 999, "REV_AT_EPOCH": 2387, "BSTAR": 0, "MEAN_MOTION_DOT": -9.4e-07, "MEAN_MOTION_DDOT": 0}, "tle": {"line1": "1 44333U 19034A   25357.95515825 -.00000094  00000+0  00000+0 0  9998", "line2": "2 44333   0.0228  67.9518 0000668  76.4171 191.3588  1.00268558 23873"}}, "geometry": {"type": "Point", "coordinates": [140.49632966126586, 0.03778744473844384]}}]}